[
  {
    "name": "KUIPER-00561",
    "noradId": "69624",
    "line1": "1 69624U 26140AJ  26180.40581550  .00032763  00000+0  85978-3 0  9995",
    "line2": "2 69624  51.8827 339.6084 0008033 242.6376 117.3794 15.38317703  3112"
  },
  {
    "name": "KUIPER-00564",
    "noradId": "69625",
    "line1": "1 69625U 26140AK  26180.40350598  .00028739  00000+0  74764-3 0  9991",
    "line2": "2 69625  51.8816 339.5923 0009492 231.3551 128.6588 15.38641579  3119"
  },
  {
    "name": "KUIPER-00567",
    "noradId": "69626",
    "line1": "1 69626U 26140AL  26179.91668981  .00067315  00000+0  17570-2 0  9998",
    "line2": "2 69626  51.8774 341.8879 0013047 207.1397   4.6018 15.38102640  3010"
  },
  {
    "name": "KUIPER-00573",
    "noradId": "69627",
    "line1": "1 69627U 26140AM  26180.40472433  .00023636  00000+0  64474-3 0  9994",
    "line2": "2 69627  51.8789 339.5970 0009965 222.1668 137.8553 15.37283756  3116"
  }
]