{"fetchedAt":"2026-06-29T18:07:57.361Z","satellites":[{"id":"69624","name":"KUIPER-00561","constellationId":"kuiper","omm":{"OBJECT_NAME":"KUIPER-00561","OBJECT_ID":"2026-140AJ","EPOCH":"2026-06-29T09:44:22.459200","MEAN_MOTION":15.38317703,"ECCENTRICITY":0.0008033,"INCLINATION":51.8827,"RA_OF_ASC_NODE":339.6084,"ARG_OF_PERICENTER":242.6376,"MEAN_ANOMALY":117.3794,"EPHEMERIS_TYPE":0,"CLASSIFICATION_TYPE":"U","NORAD_CAT_ID":69624,"ELEMENT_SET_NO":999,"REV_AT_EPOCH":311,"BSTAR":0.00085978,"MEAN_MOTION_DOT":0.00032763,"MEAN_MOTION_DDOT":0}},{"id":"69625","name":"KUIPER-00564","constellationId":"kuiper","omm":{"OBJECT_NAME":"KUIPER-00564","OBJECT_ID":"2026-140AK","EPOCH":"2026-06-29T09:41:02.916672","MEAN_MOTION":15.38641579,"ECCENTRICITY":0.0009492,"INCLINATION":51.8816,"RA_OF_ASC_NODE":339.5923,"ARG_OF_PERICENTER":231.3551,"MEAN_ANOMALY":128.6588,"EPHEMERIS_TYPE":0,"CLASSIFICATION_TYPE":"U","NORAD_CAT_ID":69625,"ELEMENT_SET_NO":999,"REV_AT_EPOCH":311,"BSTAR":0.00074764,"MEAN_MOTION_DOT":0.00028739,"MEAN_MOTION_DDOT":0}},{"id":"69626","name":"KUIPER-00567","constellationId":"kuiper","omm":{"OBJECT_NAME":"KUIPER-00567","OBJECT_ID":"2026-140AL","EPOCH":"2026-06-28T22:00:01.999584","MEAN_MOTION":15.3810264,"ECCENTRICITY":0.00130479,"INCLINATION":51.8774,"RA_OF_ASC_NODE":341.8879,"ARG_OF_PERICENTER":207.1397,"MEAN_ANOMALY":4.6018,"EPHEMERIS_TYPE":0,"CLASSIFICATION_TYPE":"U","NORAD_CAT_ID":69626,"ELEMENT_SET_NO":999,"REV_AT_EPOCH":301,"BSTAR":0.001756967,"MEAN_MOTION_DOT":0.00067315,"MEAN_MOTION_DDOT":0}},{"id":"69627","name":"KUIPER-00573","constellationId":"kuiper","omm":{"OBJECT_NAME":"KUIPER-00573","OBJECT_ID":"2026-140AM","EPOCH":"2026-06-29T09:42:48.182112","MEAN_MOTION":15.37283756,"ECCENTRICITY":0.0009965,"INCLINATION":51.8789,"RA_OF_ASC_NODE":339.597,"ARG_OF_PERICENTER":222.1668,"MEAN_ANOMALY":137.8553,"EPHEMERIS_TYPE":0,"CLASSIFICATION_TYPE":"U","NORAD_CAT_ID":69627,"ELEMENT_SET_NO":999,"REV_AT_EPOCH":311,"BSTAR":0.00064474,"MEAN_MOTION_DOT":0.00023636,"MEAN_MOTION_DDOT":0}}]}